[
  {
    "model": "standards.Language",
    "pk": 1,
    "fields": {
      "is_enabled": false,
       "tag": "am",
      "iso_639_1": "am",
      "iso_639_2": "amh",
      "iso_639_3": "amh",
      "name": "áŠ áˆ›áˆ­áŠ› / Ä€mariÃ±Ã±Ä",
      "name_de": "Amharisch",
      "name_en": "Amharic",
      "name_es": "AmhÃ¡rico",
      "name_fr": "Amharique",
      "name_pt": "AmÃ¡rico",
      "name_ru": "ĞĞ¼Ñ…Ğ°Ñ€ÑĞºĞ¸Ğ¹",
      "name_zh": "é˜¿å§†å“ˆæ‹‰è¯­"
    }
  },
  {
    "model": "standards.Language",
    "pk": 2,
    "fields": {
      "is_enabled": false,
       "tag": "ar",
      "iso_639_1": "ar",
      "iso_639_2": "ara",
      "iso_639_3": "ara",
      "name": "Ø§Ù„Ø¹Ø±Ø¨ÙŠØ© / Al-Ê¿ArabÄ«yah",
      "name_de": "Arabisch",
      "name_en": "Arabic",
      "name_es": "Ãrabe",
      "name_fr": "Arabe",
      "name_pt": "Ãrabe",
      "name_ru": "ĞÑ€Ğ°Ğ±ÑĞºĞ¸Ğ¹",
      "name_zh": "é˜¿æ‹‰ä¼¯è¯­"
    }
  },
  {
    "model": "standards.Language",
    "pk": 3,
    "fields": {
      "is_enabled": false,
       "tag": "arc",
      "iso_639_1": "",
      "iso_639_2": "",
      "iso_639_3": "arc",
      "name": "ÜÜªÜ¡ÜÜâ€ / ××¨××™×ª / ArÄmÃ®t",
      "name_de": "AramÃ¤isch",
      "name_en": "Aramaic",
      "name_es": "Arameo",
      "name_fr": "AramÃ©en",
      "name_pt": "Aramaico",
      "name_ru": "ĞÑ€Ğ°Ğ¼ĞµĞ¹ÑĞºĞ¸Ğµ",
      "name_zh": "äºšæ‹‰å§†è¯­"
    }
  },
  {
    "model": "standards.Language",
    "pk": 4,
    "fields": {
      "is_enabled": false,
       "tag": "as",
      "iso_639_1": "as",
      "iso_639_2": "asm",
      "iso_639_3": "asm",
      "name": "à¦…à¦¸à¦®à§€à§Ÿà¦¾ / Ã”xÃ´miya",
      "name_de": "Assamesisch",
      "name_en": "Assamese",
      "name_es": "AsamÃ©s",
      "name_fr": "Assamais",
      "name_pt": "AssamÃªs",
      "name_ru": "ĞÑÑĞ°Ğ¼ÑĞºĞ¸Ğ¹",
      "name_zh": "é˜¿è¨å§†è¯­"
    }
  },
  {
    "model": "standards.Language",
    "pk": 5,
    "fields": {
      "is_enabled": false,
       "tag": "az",
      "iso_639_1": "az",
      "iso_639_2": "aze",
      "iso_639_3": "aze",
      "name": "AzÉ™rbaycanca",
      "name_de": "Aserbaidschanisch",
      "name_en": "Azerbaijani",
      "name_es": "AzerÃ­",
      "name_fr": "AzÃ©ri",
      "name_pt": "Azeri",
      "name_ru": "ĞĞ·ĞµÑ€Ğ±Ğ°Ğ¹Ğ´Ğ¶Ğ°Ğ½ÑĞºĞ¸Ğ¹",
      "name_zh": "é˜¿å¡æ‹œç–†è¯­"
    }
  },
  {
    "model": "standards.Language",
    "pk": 6,
    "fields": {
      "is_enabled": false,
       "tag": "bg",
      "iso_639_1": "bg",
      "iso_639_2": "bul",
      "iso_639_3": "bui",
      "name": "Ğ‘ÑŠĞ»Ğ³Ğ°Ñ€ÑĞºĞ¸ / Bulgarski",
      "name_de": "Bulgarisch",
      "name_en": "Bulgarian",
      "name_es": "BÃºlgaro",
      "name_fr": "Bulgare",
      "name_pt": "BÃºlgaro",
      "name_ru": "Ğ‘Ğ¾Ğ»Ğ³Ğ°Ñ€ÑĞºĞ¸Ğ¹",
      "name_zh": "ä¿åŠ åˆ©äºšè¯­"
    }
  },
  {
    "model": "standards.Language",
    "pk": 7,
    "fields": {
      "is_enabled": false,
       "tag": "bh",
      "iso_639_1": "bh",
      "iso_639_2": "bho",
      "iso_639_3": "bho",
      "name": "à¤­à¥‹à¤œà¤ªà¥à¤°à¥€ / BhÅjapurÄ«",
      "name_de": "Bhojpuri",
      "name_en": "Bhojpuri",
      "name_es": "BopurÃ­",
      "name_fr": "Bhodjpouri",
      "name_pt": "Bhojpuri",
      "name_ru": "Ğ‘Ñ…Ğ¾Ğ´Ğ¶Ğ¿ÑƒÑ€Ğ¸",
      "name_zh": "åšæ°æ™®å°”è¯­"
    }
  },
  {
    "model": "standards.Language",
    "pk": 8,
    "fields": {
      "is_enabled": false,
       "tag": "bn",
      "iso_639_1": "bn",
      "iso_639_2": "ben",
      "iso_639_3": "ben",
      "name": "à¦¬à¦¾à¦‚à¦²à¦¾ / Bangla",
      "name_de": "Bengalisch",
      "name_en": "Bengali",
      "name_es": "BengalÃ­",
      "name_fr": "Bengali",
      "name_pt": "Bengali",
      "name_ru": "Ğ‘ĞµĞ½Ğ³Ğ°Ğ»ÑŒÑĞºĞ¸Ğ¹",
      "name_zh": "å­ŸåŠ æ‹‰è¯­"
    }
  },
  {
    "model": "standards.Language",
    "pk": 9,
    "fields": {
      "is_enabled": false,
       "tag": "ca",
      "iso_639_1": "ca",
      "iso_639_2": "cat",
      "iso_639_3": "cat",
      "name": "CatalÃ ",
      "name_de": "Katalanisch",
      "name_en": "Catalan",
      "name_es": "CatalÃ¡n",
      "name_fr": "Catalan",
      "name_pt": "CatalÃ£o",
      "name_ru": "ĞšĞ°Ñ‚Ğ°Ğ»Ğ°Ğ½ÑĞºĞ¸Ğ¹",
      "name_zh": "åŠ æ³°ç½—å°¼äºšè¯­"
    }
  },
  {
    "model": "standards.Language",
    "pk": 10,
    "fields": {
      "is_enabled": false,
       "tag": "ceb",
      "iso_639_1": "",
      "iso_639_2": "ceb",
      "iso_639_3": "ceb",
      "name": "Sinugboanon",
      "name_de": "Cebuano",
      "name_en": "Cebuano",
      "name_es": "Cebuano",
      "name_fr": "Cebuano",
      "name_pt": "Cebuano",
      "name_ru": "Ğ¡ĞµĞ±ÑƒĞ°Ğ½ÑĞºĞ¸Ğ¹",
      "name_zh": "å®¿åŠ¡è¯­"
    }
  },
  {
    "model": "standards.Language",
    "pk": 11,
    "fields": {
      "is_enabled": false,
       "tag": "cs",
      "iso_639_1": "cs",
      "iso_639_2": "cze",
      "iso_639_3": "ces",
      "name": "ÄŒesky",
      "name_de": "Tschechisch",
      "name_en": "Czech",
      "name_es": "Checo",
      "name_fr": "TchÃ¨que",
      "name_pt": "Tcheco",
      "name_ru": "Ğ§ĞµÑˆÑĞºĞ¸Ğ¹",
      "name_zh": "æ·å…‹è¯­"
    }
  },
  {
    "model": "standards.Language",
    "pk": 12,
    "fields": {
      "is_enabled": false,
       "tag": "cu",
      "iso_639_1": "cu",
      "iso_639_2": "chu",
      "iso_639_3": "chu",
      "name": "Ğ¡Ğ»Ğ¾Ğ²Ñ£ÌĞ½ÑŒÑĞºÑŠ / SlovÄ›nÄ­skÅ­",
      "name_de": "Kirchenslawisch",
      "name_en": "Church Slavonic",
      "name_es": "Eslavo eclesiÃ¡stico",
      "name_fr": "Slave liturgique",
      "name_pt": "Eslavo eclesiÃ¡stico",
      "name_ru": "Ğ¦ĞµÑ€ĞºĞ¾Ğ²Ğ½Ğ¾ÑĞ»Ğ°Ğ²ÑĞ½ÑĞºĞ¸Ğ¹",
      "name_zh": "æ•™æœƒæ–¯æ‹‰å¤«èª"
    }
  },
  {
    "model": "standards.Language",
    "pk": 13,
    "fields": {
      "is_enabled": false,
       "tag": "da",
      "iso_639_1": "da",
      "iso_639_2": "dan",
      "iso_639_3": "dan",
      "name": "Dansk",
      "name_de": "DÃ¤nisch",
      "name_en": "Danish",
      "name_es": "DanÃ©s",
      "name_fr": "Danois",
      "name_pt": "DinamarquÃªs",
      "name_ru": "Ğ”Ğ°Ñ‚ÑĞºĞ¸Ğ¹",
      "name_zh": "ä¸¹éº¦è¯­"
    }
  },
  {
    "model": "standards.Language",
    "pk": 14,
    "fields": {
      "is_enabled": false,
       "tag": "de",
      "iso_639_1": "de",
      "iso_639_2": "ger",
      "iso_639_3": "deu",
      "name": "Deutsch",
      "name_de": "Deutsch",
      "name_en": "German",
      "name_es": "AlemÃ¡n",
      "name_fr": "Allemand",
      "name_pt": "AlemÃ£o",
      "name_ru": "ĞĞµĞ¼ĞµÑ†ĞºĞ¸Ğ¹",
      "name_zh": "å¾·è¯­"
    }
  },
  {
    "model": "standards.Language",
    "pk": 15,
    "fields": {
      "is_enabled": false,
       "tag": "egy",
      "iso_639_1": "",
      "iso_639_2": "egy",
      "iso_639_3": "egy",
      "name": "Aegyptia",
      "name_de": "Ã„gyptisch",
      "name_en": "Egyptian",
      "name_es": "Egipcio",
      "name_fr": "Ã‰gyptien",
      "name_pt": "EgÃ­pcio",
      "name_ru": "Ğ•Ğ³Ğ¸Ğ¿ĞµÑ‚ÑĞºĞ¸Ğ¹",
      "name_zh": "åŸƒåŠè¯­"
    }
  },
  {
    "model": "standards.Language",
    "pk": 16,
    "fields": {
      "is_enabled": false,
       "tag": "el",
      "iso_639_1": "el",
      "iso_639_2": "gre",
      "iso_639_3": "ell",
      "name": "Î•Î»Î»Î·Î½Î¹ÎºÎ¬ / EllÄ«nikÃ¡",
      "name_de": "Griechisch",
      "name_en": "Greek",
      "name_es": "Griego",
      "name_fr": "Grec",
      "name_pt": "Grego",
      "name_ru": "Ğ“Ñ€ĞµÑ‡ĞµÑĞºĞ¸Ğ¹",
      "name_zh": "å¸Œè…Šè¯­"
    }
  },
  {
    "model": "standards.Language",
    "pk": 17,
    "fields": {
      "is_enabled": false,
       "tag": "en",
      "iso_639_1": "en",
      "iso_639_2": "eng",
      "iso_639_3": "eng",
      "name": "English",
      "name_de": "Englisch",
      "name_en": "English",
      "name_es": "InglÃ©s",
      "name_fr": "Anglais",
      "name_pt": "InglÃªs",
      "name_ru": "ĞĞ½Ğ³Ğ»Ğ¸Ğ¹ÑĞºĞ¸Ğ¹",
      "name_zh": "è‹±è¯­"
    }
  },
  {
    "model": "standards.Language",
    "pk": 18,
    "fields": {
      "is_enabled": false,
       "tag": "eo",
      "iso_639_1": "eo",
      "iso_639_2": "epo",
      "iso_639_3": "epo",
      "name": "Esperanto",
      "name_de": "Esperanto",
      "name_en": "Esperanto",
      "name_es": "Esperanto",
      "name_fr": "EspÃ©ranto",
      "name_pt": "Esperanto",
      "name_ru": "Ğ­ÑĞ¿ĞµÑ€Ğ°Ğ½Ñ‚Ğ¾",
      "name_zh": "ä¸–ç•Œè¯­"
    }
  },
  {
    "model": "standards.Language",
    "pk": 19,
    "fields": {
      "is_enabled": true,
       "tag": "es",
      "iso_639_1": "es",
      "iso_639_2": "spa",
      "iso_639_3": "spa",
      "name": "EspaÃ±ol",
      "name_de": "Spanisch",
      "name_en": "Spanish",
      "name_es": "EspaÃ±ol",
      "name_fr": "Espagnol",
      "name_pt": "Espanhol",
      "name_ru": "Ğ˜ÑĞ¿Ğ°Ğ½ÑĞºĞ¸Ğ¹",
      "name_zh": "è¥¿ç­ç‰™è¯­"
    }
  },
  {
    "model": "standards.Language",
    "pk": 20,
    "fields": {
      "is_enabled": false,
       "tag": "et",
      "iso_639_1": "et",
      "iso_639_2": "est",
      "iso_639_3": "est",
      "name": "Eesti",
      "name_de": "Estnisch",
      "name_en": "Estonian",
      "name_es": "Estonio",
      "name_fr": "Estonien",
      "name_pt": "Estoniano",
      "name_ru": "Ğ­ÑÑ‚Ğ¾Ğ½ÑĞºĞ¸Ğ¹",
      "name_zh": "çˆ±æ²™å°¼äºšè¯­"
    }
  },
  {
    "model": "standards.Language",
    "pk": 21,
    "fields": {
      "is_enabled": false,
       "tag": "ett",
      "iso_639_1": "",
      "iso_639_2": "ett",
      "iso_639_3": "ett",
      "name": "Mechl Rasnal",
      "name_de": "Etruskisch",
      "name_en": "Etruscan",
      "name_es": "Etrusco",
      "name_fr": "Ã‰trusque",
      "name_pt": "Etrusco",
      "name_ru": "Ğ­Ñ‚Ñ€ÑƒÑÑĞºĞ¸Ğ¹",
      "name_zh": "ä¼Šç‰¹æ‹‰æ–¯åèª"
    }
  },
  {
    "model": "standards.Language",
    "pk": 22,
    "fields": {
      "is_enabled": false,
       "tag": "eu",
      "iso_639_1": "eu",
      "iso_639_2": "baq",
      "iso_639_3": "eus",
      "name": "Euskara",
      "name_de": "Baskisch",
      "name_en": "Basque",
      "name_es": "Vasco",
      "name_fr": "Basque",
      "name_pt": "Basco",
      "name_ru": "Ğ‘Ğ°ÑĞºÑĞºĞ¸Ğ¹",
      "name_zh": "å·´æ–¯å…‹èª"
    }
  },
  {
    "model": "standards.Language",
    "pk": 23,
    "fields": {
      "is_enabled": false,
       "tag": "fa",
      "iso_639_1": "fa",
      "iso_639_2": "per",
      "iso_639_3": "fas",
      "name": "ÙØ§Ø±Ø³ÛŒ / FÄrsi",
      "name_de": "Persisch",
      "name_en": "Persian",
      "name_es": "Persa",
      "name_fr": "Persan",
      "name_pt": "Persa",
      "name_ru": "ĞŸĞµÑ€ÑĞ¸Ğ´ÑĞºĞ¸Ğ¹",
      "name_zh": "æ³¢æ–¯è¯­"
    }
  },
  {
    "model": "standards.Language",
    "pk": 24,
    "fields": {
      "is_enabled": false,
       "tag": "ff",
      "iso_639_1": "ff",
      "iso_639_2": "ful",
      "iso_639_3": "ful",
      "name": "Fulfulde",
      "name_de": "Fulfulde",
      "name_en": "Fula",
      "name_es": "Fula",
      "name_fr": "Peul",
      "name_pt": "Fula",
      "name_ru": "Ğ¤ÑƒĞ»Ğ°",
      "name_zh": "å¯Œæ‹‰èª"
    }
  },
  {
    "model": "standards.Language",
    "pk": 25,
    "fields": {
      "is_enabled": false,
       "tag": "fi",
      "iso_639_1": "fi",
      "iso_639_2": "fin",
      "iso_639_3": "fin",
      "name": "Suomi",
      "name_de": "Finnisch",
      "name_en": "Finnish",
      "name_es": "FinÃ©s",
      "name_fr": "Finnois",
      "name_pt": "FinlandÃªs",
      "name_ru": "Ğ¤Ğ¸ÌĞ½ÑĞºĞ¸Ğ¹",
      "name_zh": "èŠ¬å…°è¯­"
    }
  },
  {
    "model": "standards.Language",
    "pk": 26,
    "fields": {
      "is_enabled": false,
       "tag": "fil",
      "iso_639_1": "",
      "iso_639_2": "fil",
      "iso_639_3": "fil",
      "name": "Filipino",
      "name_de": "Filipino",
      "name_en": "Filipino",
      "name_es": "Filipino",
      "name_fr": "Filipino",
      "name_pt": "Filipino",
      "name_ru": "Ğ¤Ğ¸Ğ»Ğ¸Ğ¿Ğ¿Ğ¸Ğ½ÑĞºĞ¸Ğ¹",
      "name_zh": "è²å¾‹è³“èª"
    }
  },
  {
    "model": "standards.Language",
    "pk": 27,
    "fields": {
      "is_enabled": false,
       "tag": "fr",
      "iso_639_1": "fr",
      "iso_639_2": "fre",
      "iso_639_3": "fra",
      "name": "FranÃ§ais",
      "name_de": "FranzÃ¶sisch",
      "name_en": "French",
      "name_es": "FrancÃ©s",
      "name_fr": "FranÃ§ais",
      "name_pt": "FrancÃªs",
      "name_ru": "Ğ¤Ñ€Ğ°Ğ½Ñ†ÑƒĞ·ÑĞºĞ¸Ğ¹",
      "name_zh": "æ³•è¯­"
    }
  },
  {
    "model": "standards.Language",
    "pk": 28,
    "fields": {
      "is_enabled": false,
       "tag": "ga",
      "iso_639_1": "ga",
      "iso_639_2": "gle",
      "iso_639_3": "gle",
      "name": "Gaeilge",
      "name_de": "Irisch",
      "name_en": "Irish",
      "name_es": "IrlandÃ©s",
      "name_fr": "Irlandais",
      "name_pt": "IrlandÃªs",
      "name_ru": "Ğ˜Ñ€Ğ»Ğ°Ğ½Ğ´ÑĞºĞ¸Ğ¹",
      "name_zh": "æ„›çˆ¾è˜­èª"
    }
  },
  {
    "model": "standards.Language",
    "pk": 29,
    "fields": {
      "is_enabled": false,
       "tag": "gez",
      "iso_639_1": "",
      "iso_639_2": "gez",
      "iso_639_3": "gez",
      "name": "áŒá‹•á‹ / GÉ™Ê¿É™z",
      "name_de": "Ge'ez",
      "name_en": "Ge'ez",
      "name_es": "Ge'ez",
      "name_fr": "Ge'ez",
      "name_pt": "Ge'ez",
      "name_ru": "Ğ“ĞµÑĞ·",
      "name_zh": "å‰èŒ²èª"
    }
  },
  {
    "model": "standards.Language",
    "pk": 30,
    "fields": {
      "is_enabled": false,
       "tag": "gu",
      "iso_639_1": "gu",
      "iso_639_2": "guj",
      "iso_639_3": "guj",
      "name": "àª—à«àªœàª°àª¾àª¤à«€ / Gujarati",
      "name_de": "Gujarati",
      "name_en": "Gujarati",
      "name_es": "GuyaratÃ­",
      "name_fr": "GujarÄtÄ«",
      "name_pt": "Gujarati",
      "name_ru": "Ğ“ÑƒĞ´Ğ¶Ğ°Ñ€Ğ°Ñ‚Ğ¸",
      "name_zh": "å¤å‰æ‹‰ç‰¹è¯­"
    }
  },
  {
    "model": "standards.Language",
    "pk": 31,
    "fields": {
      "is_enabled": false,
       "tag": "ha",
      "iso_639_1": "ha",
      "iso_639_2": "hau",
      "iso_639_3": "hau",
      "name": "Ù‡ÙÙˆÙØ³Ù / Hausa",
      "name_de": "Hausa",
      "name_en": "Hausa",
      "name_es": "Hausa",
      "name_fr": "Haoussa",
      "name_pt": "HaÃºÃ§a",
      "name_ru": "Ğ¥Ğ°ÑƒÑĞ°",
      "name_zh": "è±ªè¨è¯­"
    }
  },
  {
    "model": "standards.Language",
    "pk": 32,
    "fields": {
      "is_enabled": false,
       "tag": "he",
      "iso_639_1": "he",
      "iso_639_2": "heb",
      "iso_639_3": "heb",
      "name": "×¢×‘×¨×™×ª / â€˜Ivrit",
      "name_de": "HebrÃ¤isch",
      "name_en": "Hebrew",
      "name_es": "Hebreo",
      "name_fr": "HÃ©breu",
      "name_pt": "Hebraico",
      "name_ru": "Ğ˜Ğ²Ñ€Ğ¸Ñ‚",
      "name_zh": "å¸Œä¼¯æ¥è¯­"
    }
  },
  {
    "model": "standards.Language",
    "pk": 33,
    "fields": {
      "is_enabled": false,
       "tag": "hi",
      "iso_639_1": "hi",
      "iso_639_2": "hin",
      "iso_639_3": "hin",
      "name": "à¤¹à¤¿à¤¨à¥à¤¦à¥€ / HindÄ«",
      "name_de": "Hindi",
      "name_en": "Hindi",
      "name_es": "Hindi",
      "name_fr": "Hindi",
      "name_pt": "Hindi",
      "name_ru": "Ğ¥Ğ¸Ğ½Ğ´Ğ¸",
      "name_zh": "å°åœ°è¯­"
    }
  },
  {
    "model": "standards.Language",
    "pk": 34,
    "fields": {
      "is_enabled": false,
       "tag": "hit",
      "iso_639_1": "",
      "iso_639_2": "hit",
      "iso_639_3": "hit",
      "name": "ğ’‰ˆğ’…†ğ’‡· / NeÅ¡ili",
      "name_de": "Hethitisch",
      "name_en": "Hittite",
      "name_es": "Hitita",
      "name_fr": "Hittite",
      "name_pt": "Hitita",
      "name_ru": "Ğ¥ĞµÑ‚Ñ‚ÑĞºĞ¸Ğ¹",
      "name_zh": "èµ«æ¢¯èª"
    }
  },
  {
    "model": "standards.Language",
    "pk": 35,
    "fields": {
      "is_enabled": false,
       "tag": "hr",
      "iso_639_1": "hr",
      "iso_639_2": "hrv",
      "iso_639_3": "hrv",
      "name": "Hrvatski",
      "name_de": "Kroatisch",
      "name_en": "Croatian",
      "name_es": "Croata",
      "name_fr": "Croate",
      "name_pt": "Croata",
      "name_ru": "Ğ¥Ğ¾Ñ€Ğ²Ğ°Ñ‚ÑĞºĞ¸Ğ¹",
      "name_zh": "å…‹ç½—åœ°äºšè¯­"
    }
  },
  {
    "model": "standards.Language",
    "pk": 36,
    "fields": {
      "is_enabled": false,
       "tag": "hu",
      "iso_639_1": "hu",
      "iso_639_2": "hun",
      "iso_639_3": "hun",
      "name": "Magyar",
      "name_de": "Ungarisch",
      "name_en": "Hungarian",
      "name_es": "HÃºngaro",
      "name_fr": "Hongrois",
      "name_pt": "HÃºngaro",
      "name_ru": "Ğ’ĞµĞ½Ğ³ĞµÑ€ÑĞºĞ¸Ğ¹",
      "name_zh": "åŒˆç‰™åˆ©è¯­"
    }
  },
  {
    "model": "standards.Language",
    "pk": 37,
    "fields": {
      "is_enabled": false,
       "tag": "id",
      "iso_639_1": "id",
      "iso_639_2": "ind",
      "iso_639_3": "ind",
      "name": "Bahasa Indonesia",
      "name_de": "Indonesisch",
      "name_en": "Indonesian",
      "name_es": "Indonesio",
      "name_fr": "IndonÃ©sien",
      "name_pt": "IndonÃ©sio",
      "name_ru": "Ğ˜Ğ½Ğ´Ğ¾Ğ½ĞµĞ·Ğ¸Ğ¹ÑĞºĞ¸Ğ¹",
      "name_zh": "å°å°¼è¯­"
    }
  },
  {
    "model": "standards.Language",
    "pk": 38,
    "fields": {
      "is_enabled": false,
       "tag": "ig",
      "iso_639_1": "ig",
      "iso_639_2": "ibo",
      "iso_639_3": "ibo",
      "name": "Igbo",
      "name_de": "Igbo",
      "name_en": "Igbo",
      "name_es": "Igbo",
      "name_fr": "Igbo",
      "name_pt": "Igbo",
      "name_ru": "Ğ˜Ğ³Ğ±Ğ¾",
      "name_zh": "ä¼Šåšèª"
    }
  },
  {
    "model": "standards.Language",
    "pk": 39,
    "fields": {
      "is_enabled": false,
       "tag": "it",
      "iso_639_1": "it",
      "iso_639_2": "ita",
      "iso_639_3": "ita",
      "name": "Italiano",
      "name_de": "Italienisch",
      "name_en": "Italian",
      "name_es": "Italiano",
      "name_fr": "Italien",
      "name_pt": "Italiano",
      "name_ru": "Ğ˜Ñ‚Ğ°Ğ»ÑŒÑĞ½ÑĞºĞ¸Ğ¹",
      "name_zh": "æ„å¤§åˆ©è¯­"
    }
  },
  {
    "model": "standards.Language",
    "pk": 40,
    "fields": {
      "is_enabled": false,
       "tag": "ja",
      "iso_639_1": "ja",
      "iso_639_2": "jpn",
      "iso_639_3": "jpn",
      "name": "æ—¥æœ¬èª / Nihongo",
      "name_de": "Japanisch",
      "name_en": "Japanese",
      "name_es": "JaponÃ©s",
      "name_fr": "Japonais",
      "name_pt": "JaponÃªs",
      "name_ru": "Ğ¯Ğ¿Ğ¾Ğ½ÑĞºĞ¸Ğ¹",
      "name_zh": "æ—¥è¯­"
    }
  },
  {
    "model": "standards.Language",
    "pk": 41,
    "fields": {
      "is_enabled": false,
       "tag": "jv",
      "iso_639_1": "jv",
      "iso_639_2": "jav",
      "iso_639_3": "jav",
      "name": "Basa Jawa",
      "name_de": "Javanisch",
      "name_en": "Javanese",
      "name_es": "JavanÃ©s",
      "name_fr": "Javanais",
      "name_pt": "JavanÃªs",
      "name_ru": "Ğ¯Ğ²Ğ°Ğ½ÑĞºĞ¸Ğ¹",
      "name_zh": "çˆªå“‡èª"
    }
  },
  {
    "model": "standards.Language",
    "pk": 42,
    "fields": {
      "is_enabled": false,
       "tag": "kk",
      "iso_639_1": "kk",
      "iso_639_2": "kaz",
      "iso_639_3": "kaz",
      "name": "ÒšĞ°Ğ·Ğ°Ò›ÑˆĞ° / QazaqÅŸa / Ù‚Ø§Ø²Ø§Ù‚Ø´Ø§",
      "name_de": "Kasachisch",
      "name_en": "Kazakh",
      "name_es": "Kazajo",
      "name_fr": "Kazakh",
      "name_pt": "Cazaque",
      "name_ru": "ĞšĞ°Ğ·Ğ°Ñ…ÑĞºĞ¸Ğ¹",
      "name_zh": "å“ˆè¨å…‹è¯­"
    }
  },
  {
    "model": "standards.Language",
    "pk": 43,
    "fields": {
      "is_enabled": false,
       "tag": "kn",
      "iso_639_1": "kn",
      "iso_639_2": "kan",
      "iso_639_3": "kan",
      "name": "à²•à²¨à³à²¨à²¡ / Kannada",
      "name_de": "Kanaresisch",
      "name_en": "Kannada",
      "name_es": "CanarÃ©s",
      "name_fr": "Kannada",
      "name_pt": "CanarÃªs",
      "name_ru": "ĞšĞ°Ğ½Ğ½Ğ°Ğ´Ğ°",
      "name_zh": "å¡çº³è¾¾è¯­"
    }
  },
  {
    "model": "standards.Language",
    "pk": 44,
    "fields": {
      "is_enabled": false,
       "tag": "ko",
      "iso_639_1": "ko",
      "iso_639_2": "kor",
      "iso_639_3": "kor",
      "name": "í•œêµ­ì–´ / Hangugeo",
      "name_de": "Koreanisch",
      "name_en": "Korean",
      "name_es": "Coreano",
      "name_fr": "CorÃ©en",
      "name_pt": "Coreano",
      "name_ru": "ĞšĞ¾Ñ€ĞµĞ¹ÑĞºĞ¸Ğ¹",
      "name_zh": "æœé®®èª"
    }
  },
  {
    "model": "standards.Language",
    "pk": 45,
    "fields": {
      "is_enabled": false,
       "tag": "ku",
      "iso_639_1": "ku",
      "iso_639_2": "kur",
      "iso_639_3": "kur",
      "name": "ÙƒÙˆØ±Ø¯ÛŒ / KurdÃ®",
      "name_de": "Kurdisch",
      "name_en": "Kurdish",
      "name_es": "Kurdo",
      "name_fr": "Kurde",
      "name_pt": "Curdo",
      "name_ru": "ĞšÑƒÑ€Ğ´ÑĞºĞ°Ñ",
      "name_zh": "åº“å°”å¾·è¯­"
    }
  },
  {
    "model": "standards.Language",
    "pk": 46,
    "fields": {
      "is_enabled": false,
       "tag": "la",
      "iso_639_1": "la",
      "iso_639_2": "lat",
      "iso_639_3": "lat",
      "name": "Latina",
      "name_de": "Latein",
      "name_en": "Latin",
      "name_es": "LatÃ­n",
      "name_fr": "Latin",
      "name_pt": "Latim",
      "name_ru": "Ğ›Ğ°Ñ‚Ğ¸Ğ½ÑĞºĞ¸Ğ¹",
      "name_zh": "æ‹‰ä¸è¯­"
    }
  },
  {
    "model": "standards.Language",
    "pk": 47,
    "fields": {
      "is_enabled": false,
       "tag": "lo",
      "iso_639_1": "lo",
      "iso_639_2": "lao",
      "iso_639_3": "lao",
      "name": "àºàº²àºªàº²àº¥àº²àº§ / Phaasaa Laao",
      "name_de": "Laotisch",
      "name_en": "Lao",
      "name_es": "Laosiano",
      "name_fr": "Laotien",
      "name_pt": "Laociano",
      "name_ru": "Ğ›Ğ°Ğ¾ÑÑĞºĞ¸Ğ¹",
      "name_zh": "è€æŒè¯­"
    }
  },
  {
    "model": "standards.Language",
    "pk": 48,
    "fields": {
      "is_enabled": false,
       "tag": "lt",
      "iso_639_1": "lt",
      "iso_639_2": "lit",
      "iso_639_3": "lit",
      "name": "LietuviÅ³",
      "name_de": "Litauisch",
      "name_en": "Lithuanian",
      "name_es": "Lituano",
      "name_fr": "Lituanien",
      "name_pt": "Lituano",
      "name_ru": "Ğ›Ğ¸Ñ‚Ğ¾Ğ²ÑĞºĞ¸Ğ¹",
      "name_zh": "ç«‹é™¶å®›è¯­"
    }
  },
  {
    "model": "standards.Language",
    "pk": 49,
    "fields": {
      "is_enabled": false,
       "tag": "lv",
      "iso_639_1": "lv",
      "iso_639_2": "lav",
      "iso_639_3": "lav",
      "name": "LatvieÅ¡u",
      "name_de": "Lettisch",
      "name_en": "Latvian",
      "name_es": "LetÃ³n",
      "name_fr": "Letton",
      "name_pt": "LetÃ£o",
      "name_ru": "Ğ›Ğ°Ñ‚Ñ‹ÑˆÑĞºĞ¸Ğ¹",
      "name_zh": "æ‹‰è„±ç»´äºšè¯­"
    }
  },
  {
    "model": "standards.Language",
    "pk": 50,
    "fields": {
      "is_enabled": false,
       "tag": "mag",
      "iso_639_1": "",
      "iso_639_2": "mag",
      "iso_639_3": "mag",
      "name": "à¤®à¤—à¤¹à¥€ / MagahÄ«",
      "name_de": "Magadhi",
      "name_en": "Magadhi",
      "name_es": "Magahi",
      "name_fr": "Magahi",
      "name_pt": "Magahi",
      "name_ru": "ĞœĞ°Ğ³Ğ°Ñ…Ğ¸",
      "name_zh": "æ‘©æ­é™€èª"
    }
  },
  {
    "model": "standards.Language",
    "pk": 51,
    "fields": {
      "is_enabled": false,
       "tag": "mai",
      "iso_639_1": "",
      "iso_639_2": "mai",
      "iso_639_3": "mai",
      "name": "à¤®à¥ˆà¤¥à¤¿à¤²à¥€ / MaithilÄ«",
      "name_de": "Maithili",
      "name_en": "Maithili",
      "name_es": "Maithili",
      "name_fr": "MaÃ¯thili",
      "name_pt": "Maithili",
      "name_ru": "ĞœĞ°Ğ¹Ñ‚Ñ…Ğ¸Ğ»Ğ¸",
      "name_zh": "è¿ˆè’‚åˆ©è¯­"
    }
  },
  {
    "model": "standards.Language",
    "pk": 52,
    "fields": {
      "is_enabled": false,
       "tag": "mg",
      "iso_639_1": "mg",
      "iso_639_2": "mlg",
      "iso_639_3": "mlg",
      "name": "Malagasy",
      "name_de": "Madagassisch",
      "name_en": "Malagasy",
      "name_es": "Malgache",
      "name_fr": "Malgache",
      "name_pt": "Malgaxe",
      "name_ru": "ĞœĞ°Ğ»Ğ°Ğ³Ğ°ÑĞ¸Ğ¹ÑĞºĞ¸Ğ¹",
      "name_zh": "é©¬æ‹‰åŠ æ–¯è¯­"
    }
  },
  {
    "model": "standards.Language",
    "pk": 53,
    "fields": {
      "is_enabled": false,
       "tag": "ml",
      "iso_639_1": "ml",
      "iso_639_2": "mal",
      "iso_639_3": "mal",
      "name": "à´®à´²à´¯à´¾à´³à´‚ / Malayalam",
      "name_de": "Malayalam",
      "name_en": "Malayalam",
      "name_es": "Malabar",
      "name_fr": "Malayalam",
      "name_pt": "Malabar",
      "name_ru": "ĞœĞ°Ğ»Ğ°ÑĞ»Ğ°Ğ¼",
      "name_zh": "é©¬æ‹‰é›…æ‹‰å§†è¯­"
    }
  },
  {
    "model": "standards.Language",
    "pk": 54,
    "fields": {
      "is_enabled": false,
       "tag": "mr",
      "iso_639_1": "mr",
      "iso_639_2": "mar",
      "iso_639_3": "mar",
      "name": "à¤®à¤°à¤¾à¤ à¥€ / Marathi",
      "name_de": "Marathisch",
      "name_en": "Marathi",
      "name_es": "MaratÃ­",
      "name_fr": "MarÃ¢thÃ®",
      "name_pt": "Marata",
      "name_ru": "ĞœĞ°Ñ€Ğ°Ñ‚Ñ…Ğ¸",
      "name_zh": "é©¬æ‹‰åœ°è¯­"
    }
  },
  {
    "model": "standards.Language",
    "pk": 55,
    "fields": {
      "is_enabled": false,
       "tag": "ms",
      "iso_639_1": "ms",
      "iso_639_2": "may",
      "iso_639_3": "msa",
      "name": "Bahasa Melayu",
      "name_de": "Malaiisch",
      "name_en": "Malay",
      "name_es": "Malayo",
      "name_fr": "Malaisien",
      "name_pt": "Malaio",
      "name_ru": "ĞœĞ°Ğ»Ğ°Ğ¹ÑĞºĞ¸Ğ¹",
      "name_zh": "é©¬æ¥äºº"
    }
  },
  {
    "model": "standards.Language",
    "pk": 56,
    "fields": {
      "is_enabled": false,
       "tag": "mt",
      "iso_639_1": "mt",
      "iso_639_2": "mlt",
      "iso_639_3": "mlt",
      "name": "Malti",
      "name_de": "Maltesisch",
      "name_en": "Maltese",
      "name_es": "MaltÃ©s",
      "name_fr": "Maltais",
      "name_pt": "MaltÃªs",
      "name_ru": "ĞœĞ°Ğ»ÑŒÑ‚Ğ¸Ğ¹ÑĞºĞ¸Ğ¹",
      "name_zh": "é©¬è€³ä»–è¯­"
    }
  },
  {
    "model": "standards.Language",
    "pk": 57,
    "fields": {
      "is_enabled": false,
       "tag": "mwr",
      "iso_639_1": "",
      "iso_639_2": "mwr",
      "iso_639_3": "mwr",
      "name": "à¤®à¤¾à¤°à¤µà¤¾à¤¡à¤¼à¥€ / Marwari",
      "name_de": "Marwari",
      "name_en": "Marwari",
      "name_es": "Marwari",
      "name_fr": "Marwari",
      "name_pt": "Marwari",
      "name_ru": "ĞœĞ°Ñ€Ğ²Ğ°Ñ€Ğ¸",
      "name_zh": "é¦¬çˆ¾ç“¦é‡Œèª"
    }
  },
  {
    "model": "standards.Language",
    "pk": 58,
    "fields": {
      "is_enabled": false,
       "tag": "my",
      "iso_639_1": "my",
      "iso_639_2": "bur",
      "iso_639_3": "mya",
      "name": "á€™á€¼á€”á€ºá€™á€¬á€˜á€¬á€á€¬ / Myanmarsar",
      "name_de": "Birmanisch",
      "name_en": "Burmese",
      "name_es": "Birmano",
      "name_fr": "Birman",
      "name_pt": "BirmanÃªs",
      "name_ru": "Ğ‘Ğ¸Ñ€Ğ¼Ğ°Ğ½ÑĞºĞ¸Ğ¹",
      "name_zh": "ç¼…ç”¸è¯­"
    }
  },
  {
    "model": "standards.Language",
    "pk": 59,
    "fields": {
      "is_enabled": false,
       "tag": "myn",
      "iso_639_1": "",
      "iso_639_2": "myn",
      "iso_639_3": "myn",
      "name": "MÃ aya",
      "name_de": "Maya",
      "name_en": "Mayan",
      "name_es": "Maya",
      "name_fr": "Maya",
      "name_pt": "Maia",
      "name_ru": "ĞœĞ°Ğ¹ÑÑĞºĞ¸Ğµ",
      "name_zh": "é¦¬é›…èªç³»"
    }
  },
  {
    "model": "standards.Language",
    "pk": 60,
    "fields": {
      "is_enabled": false,
       "tag": "nah",
      "iso_639_1": "",
      "iso_639_2": "nah",
      "iso_639_3": "nah",
      "name": "NÄhuatl",
      "name_de": "Nahuatl",
      "name_en": "Nahuatl",
      "name_es": "NÃ¡huatl",
      "name_fr": "Nahuatl",
      "name_pt": "NÃ¡uatle",
      "name_ru": "ĞÑÑ‚ĞµĞºÑĞºĞ¸Ğµ",
      "name_zh": "ç´ç“¦ç‰¹çˆ¾èª"
    }
  },
  {
    "model": "standards.Language",
    "pk": 61,
    "fields": {
      "is_enabled": false,
       "tag": "ne",
      "iso_639_1": "ne",
      "iso_639_2": "nep",
      "iso_639_3": "nep",
      "name": "à¤¨à¥‡à¤ªà¤¾à¤²à¥€ / NepÄlÄ«",
      "name_de": "Nepalesisch",
      "name_en": "Nepali",
      "name_es": "NepalÃ­",
      "name_fr": "NÃ©palais",
      "name_pt": "Nepali",
      "name_ru": "ĞĞµĞ¿Ğ°Ğ»ÑŒÑĞºĞ¸Ğ¹",
      "name_zh": "å°¼æ³Šå°”è¯­"
    }
  },
  {
    "model": "standards.Language",
    "pk": 62,
    "fields": {
      "is_enabled": false,
       "tag": "nl",
      "iso_639_1": "nl",
      "iso_639_2": "dut",
      "iso_639_3": "nld",
      "name": "Nederlands",
      "name_de": "NiederlÃ¤ndisch",
      "name_en": "Dutch",
      "name_es": "NeerlandÃ©s",
      "name_fr": "NÃ©erlandais",
      "name_pt": "NeerlandÃªs",
      "name_ru": "ĞĞ¸Ğ´ĞµÑ€Ğ»Ğ°Ğ½Ğ´ÑĞºĞ¸Ğ¹",
      "name_zh": "è·è˜­èª"
    }
  },
  {
    "model": "standards.Language",
    "pk": 63,
    "fields": {
      "is_enabled": false,
       "tag": "no",
      "iso_639_1": "no",
      "iso_639_2": "nor",
      "iso_639_3": "nor",
      "name": "Norsk",
      "name_de": "Norwegisch",
      "name_en": "Norwegian",
      "name_es": "Noruego",
      "name_fr": "NorvÃ©gien",
      "name_pt": "NorueguÃªs",
      "name_ru": "ĞĞ¾Ñ€Ğ²ĞµĞ¶ÑĞºĞ¸Ğ¹",
      "name_zh": "æŒªå¨è¯­"
    }
  },
  {
    "model": "standards.Language",
    "pk": 64,
    "fields": {
      "is_enabled": false,
       "tag": "ny",
      "iso_639_1": "ny",
      "iso_639_2": "nya",
      "iso_639_3": "nya",
      "name": "chiChewa",
      "name_de": "Chichewa",
      "name_en": "Chewa",
      "name_es": "Chichewa",
      "name_fr": "Chichewa",
      "name_pt": "Nianja",
      "name_ru": "ĞÑŒÑĞ½Ğ´Ğ¶Ğ°",
      "name_zh": "é½åˆ‡ç“¦è¯­"
    }
  },
  {
    "model": "standards.Language",
    "pk": 65,
    "fields": {
      "is_enabled": false,
       "tag": "om",
      "iso_639_1": "om",
      "iso_639_2": "orm",
      "iso_639_3": "orm",
      "name": "Oromoo",
      "name_de": "Oromo",
      "name_en": "Oromo",
      "name_es": "Oromo",
      "name_fr": "Oromo",
      "name_pt": "Oromo",
      "name_ru": "ĞÑ€Ğ¾Ğ¼Ğ¾",
      "name_zh": "å¥§ç¾…è«èª"
    }
  },
  {
    "model": "standards.Language",
    "pk": 66,
    "fields": {
      "is_enabled": false,
       "tag": "or",
      "iso_639_1": "or",
      "iso_639_2": "ori",
      "iso_639_3": "ori",
      "name": "à¬“à­œà¬¿à¬† / Oá¹›iÄ",
      "name_de": "Oriya",
      "name_en": "Oriya",
      "name_es": "Oriya",
      "name_fr": "Oriya",
      "name_pt": "OriÃ¡",
      "name_ru": "ĞÑ€Ğ¸Ñ",
      "name_zh": "å¥¥é‡Œäºšè¯­"
    }
  },
  {
    "model": "standards.Language",
    "pk": 67,
    "fields": {
      "is_enabled": false,
       "tag": "pa",
      "iso_639_1": "pa",
      "iso_639_2": "pan",
      "iso_639_3": "pan",
      "name": "à¨ªà©°à¨œà¨¾à¨¬à©€ / PaÃ±jÄbÄ«",
      "name_de": "Panjabi",
      "name_en": "Punjabi",
      "name_es": "PanyabÃ­",
      "name_fr": "PanjÄbÄ«",
      "name_pt": "Panjabi",
      "name_ru": "ĞŸĞ°Ğ½Ğ´Ğ¶Ğ°Ğ±Ğ¸",
      "name_zh": "æ—é®æ™®èª"
    }
  },
  {
    "model": "standards.Language",
    "pk": 68,
    "fields": {
      "is_enabled": false,
       "tag": "phn",
      "iso_639_1": "",
      "iso_639_2": "phn",
      "iso_639_3": "phn",
      "name": "ğ¤ƒğ¤ğ¤“ğ¤‰ğ¤Œ ğ¤Šğ¤ğ¤ğ¤ğ¤‰ğ¤Œ / DabarÄ«m kanaÊ¿nÄ«m",
      "name_de": "PhÃ¶nizisch",
      "name_en": "Phoenician",
      "name_es": "Fenicio",
      "name_fr": "PhÃ©nicien",
      "name_pt": "FenÃ­cio",
      "name_ru": "Ğ¤Ğ¸Ğ½Ğ¸ĞºĞ¸Ğ¹ÑĞºĞ¸Ğ¹",
      "name_zh": "è…“å°¼åŸºè¯­"
    }
  },
  {
    "model": "standards.Language",
    "pk": 69,
    "fields": {
      "is_enabled": false,
       "tag": "pl",
      "iso_639_1": "pl",
      "iso_639_2": "pol",
      "iso_639_3": "pol",
      "name": "Polski",
      "name_de": "Polnisch",
      "name_en": "Polish",
      "name_es": "Polaco",
      "name_fr": "Polonais",
      "name_pt": "Polaco",
      "name_ru": "ĞŸĞ¾Ğ»ÑŒÑĞºĞ¸Ğ¹",
      "name_zh": "æ³¢å…°è¯­"
    }
  },
  {
    "model": "standards.Language",
    "pk": 70,
    "fields": {
      "is_enabled": false,
       "tag": "ps",
      "iso_639_1": "ps",
      "iso_639_2": "pus",
      "iso_639_3": "pus",
      "name": "Ù¾ÚšØªÙˆ / PaÊ‚to",
      "name_de": "Paschtunisch",
      "name_en": "Pashto",
      "name_es": "PastÃºn",
      "name_fr": "Pachto",
      "name_pt": "Pachto",
      "name_ru": "ĞŸÑƒÑˆÑ‚Ñƒ",
      "name_zh": "æ™®ä»€å›¾è¯­"
    }
  },
  {
    "model": "standards.Language",
    "pk": 71,
    "fields": {
      "is_enabled": true,
       "tag": "pt",
      "iso_639_1": "pt",
      "iso_639_2": "por",
      "iso_639_3": "por",
      "name": "PortuguÃªs",
      "name_de": "Portugiesisch",
      "name_en": "Portuguese",
      "name_es": "PortuguÃ©s",
      "name_fr": "Portugais",
      "name_pt": "PortuguÃªs",
      "name_ru": "ĞŸĞ¾Ñ€Ñ‚ÑƒĞ³Ğ°Ğ»ÑŒÑĞºĞ¸Ğ¹",
      "name_zh": "è‘¡è„ç‰™èª"
    }
  },
  {
    "model": "standards.Language",
    "pk": 72,
    "fields": {
      "is_enabled": false,
       "tag": "qu",
      "iso_639_1": "qu",
      "iso_639_2": "que",
      "iso_639_3": "que",
      "name": "Qhichwa simi",
      "name_de": "Quechua",
      "name_en": "Quechua",
      "name_es": "Quechua",
      "name_fr": "Quechua",
      "name_pt": "QuÃ­chua",
      "name_ru": "ĞšĞµÑ‡ÑƒĞ°",
      "name_zh": "å…‹ä¸˜äºèª"
    }
  },
  {
    "model": "standards.Language",
    "pk": 73,
    "fields": {
      "is_enabled": false,
       "tag": "ro",
      "iso_639_1": "ro",
      "iso_639_2": "rum",
      "iso_639_3": "ron",
      "name": "RomÃ¢nÄƒ",
      "name_de": "RumÃ¤nisch",
      "name_en": "Romanian",
      "name_es": "Rumano",
      "name_fr": "Roumain",
      "name_pt": "Romeno",
      "name_ru": "Ğ ÑƒĞ¼Ñ‹Ğ½ÑĞºĞ¸Ğ¹",
      "name_zh": "ç¾…é¦¬å°¼äºèª"
    }
  },
  {
    "model": "standards.Language",
    "pk": 74,
    "fields": {
      "is_enabled": false,
       "tag": "ru",
      "iso_639_1": "ru",
      "iso_639_2": "rus",
      "iso_639_3": "rus",
      "name": "Ğ ÑƒÑÑĞºĞ¸Ğ¹ / Russkiy",
      "name_de": "Russisch",
      "name_en": "Russian",
      "name_es": "Ruso",
      "name_fr": "Russe",
      "name_pt": "Russo",
      "name_ru": "Ğ ÑƒÑÑĞºĞ¸Ğ¹",
      "name_zh": "ä¿„è¯­"
    }
  },
  {
    "model": "standards.Language",
    "pk": 75,
    "fields": {
      "is_enabled": false,
       "tag": "sa",
      "iso_639_1": "sa",
      "iso_639_2": "san",
      "iso_639_3": "san",
      "name": "à¤¸à¤‚à¤¸à¥à¤•à¥ƒà¤¤à¤®à¥ / Saá¹ƒská¹›tam",
      "name_de": "Sanskrit",
      "name_en": "Sanskrit",
      "name_es": "SÃ¡nscrito",
      "name_fr": "Sanskrit",
      "name_pt": "SÃ¢nscrito",
      "name_ru": "Ğ¡Ğ°Ğ½ÑĞºÑ€Ğ¸Ñ‚",
      "name_zh": "æ¢µè¯­"
    }
  },
  {
    "model": "standards.Language",
    "pk": 76,
    "fields": {
      "is_enabled": false,
       "tag": "sd",
      "iso_639_1": "sd",
      "iso_639_2": "snd",
      "iso_639_3": "snd",
      "name": "Ø³Ù†ÚŒÙŠ / à¤¸à¤¿à¤¨à¥à¤§à¥€ / Sindhi",
      "name_de": "Sindhi",
      "name_en": "Sindhi",
      "name_es": "Sindhi",
      "name_fr": "SindhÃ®",
      "name_pt": "Sindi",
      "name_ru": "Ğ¡Ğ¸Ğ½Ğ´Ñ…Ğ¸",
      "name_zh": "ä¿¡å¾·è¯­"
    }
  },
  {
    "model": "standards.Language",
    "pk": 77,
    "fields": {
      "is_enabled": false,
       "tag": "sk",
      "iso_639_1": "sk",
      "iso_639_2": "slo",
      "iso_639_3": "slk",
      "name": "SlovenÄina",
      "name_de": "Slowakisch",
      "name_en": "Slovak",
      "name_es": "Eslovaco",
      "name_fr": "Slovaque",
      "name_pt": "Eslovaco",
      "name_ru": "Ğ¡Ğ»Ğ¾Ğ²Ğ°Ñ†ĞºĞ¸Ğ¹",
      "name_zh": "æ–¯æ´›ä¼å…‹è¯­"
    }
  },
  {
    "model": "standards.Language",
    "pk": 78,
    "fields": {
      "is_enabled": false,
       "tag": "sl",
      "iso_639_1": "sl",
      "iso_639_2": "slv",
      "iso_639_3": "slv",
      "name": "SlovenÅ¡Äina",
      "name_de": "Slowenisch",
      "name_en": "Slovene",
      "name_es": "Esloveno",
      "name_fr": "SlovÃ¨ne",
      "name_pt": "Esloveno",
      "name_ru": "Ğ¡Ğ»Ğ¾Ğ²ĞµĞ½ÑĞºĞ¸Ğ¹",
      "name_zh": "æ–¯æ´›æ–‡å°¼äºè¯­"
    }
  },
  {
    "model": "standards.Language",
    "pk": 79,
    "fields": {
      "is_enabled": false,
       "tag": "sn",
      "iso_639_1": "sn",
      "iso_639_2": "sna",
      "iso_639_3": "sna",
      "name": "chiShona",
      "name_de": "Shona",
      "name_en": "Shona",
      "name_es": "Shona",
      "name_fr": "Shona",
      "name_pt": "Chona",
      "name_ru": "Ğ¨Ğ¾Ğ½Ğ°"
    }
  },
  {
    "model": "standards.Language",
    "pk": 80,
    "fields": {
      "is_enabled": false,
       "tag": "so",
      "iso_639_1": "so",
      "iso_639_2": "som",
      "iso_639_3": "som",
      "name": "Soomaaliga",
      "name_de": "Somali",
      "name_en": "Somali",
      "name_es": "SomalÃ­",
      "name_fr": "Somali",
      "name_pt": "Somali",
      "name_ru": "Ğ¡Ğ¾Ğ¼Ğ°Ğ»Ğ¸Ğ¹ÑĞºĞ¸Ğ¹",
      "name_zh": "ç´¢é¦¬åˆ©äºèª"
    }
  },
  {
    "model": "standards.Language",
    "pk": 81,
    "fields": {
      "is_enabled": false,
       "tag": "sr",
      "iso_639_1": "sr",
      "iso_639_2": "srp",
      "iso_639_3": "srp",
      "name": "Ğ¡Ñ€Ğ¿ÑĞºĞ¸ / Srpski",
      "name_de": "Serbisch",
      "name_en": "Serbian",
      "name_es": "Serbio",
      "name_fr": "Serbe",
      "name_pt": "SÃ©rvio",
      "name_ru": "Ğ¡ĞµÑ€Ğ±ÑĞºĞ¸Ğ¹",
      "name_zh": "å¡å°”ç»´äºšè¯­"
    }
  },
  {
    "model": "standards.Language",
    "pk": 82,
    "fields": {
      "is_enabled": false,
       "tag": "su",
      "iso_639_1": "su",
      "iso_639_2": "sun",
      "iso_639_3": "sun",
      "name": "Basa Sunda",
      "name_de": "Sundanesisch",
      "name_en": "Sundanese",
      "name_es": "SondanÃ©s",
      "name_fr": "Soundanais",
      "name_pt": "SundanÃªs",
      "name_ru": "Ğ¡ÑƒĞ½Ğ´Ğ°Ğ½ÑĞºĞ¸Ğ¹",
      "name_zh": "å·½ä»–èª"
    }
  },
  {
    "model": "standards.Language",
    "pk": 83,
    "fields": {
      "is_enabled": false,
       "tag": "sux",
      "iso_639_1": "",
      "iso_639_2": "sux",
      "iso_639_3": "sux",
      "name": "ğ’…´ğ’‚  / Eme-Äœir",
      "name_de": "Sumerisch",
      "name_en": "Sumerian",
      "name_es": "Sumerio",
      "name_fr": "SumÃ©rien",
      "name_pt": "SumÃ©rio",
      "name_ru": "Ğ¨ÑƒĞ¼ĞµÑ€ÑĞºĞ¸Ğ¹",
      "name_zh": "è‹ç¾å°”è¯­"
    }
  },
  {
    "model": "standards.Language",
    "pk": 84,
    "fields": {
      "is_enabled": false,
       "tag": "sv",
      "iso_639_1": "sv",
      "iso_639_2": "swe",
      "iso_639_3": "swe",
      "name": "Svenska",
      "name_de": "Schwedisch",
      "name_en": "Swedish",
      "name_es": "Sueco",
      "name_fr": "SuÃ©dois",
      "name_pt": "Sueco",
      "name_ru": "Ğ¨Ğ²ĞµĞ´ÑĞºĞ¸Ğ¹",
      "name_zh": "ç‘å…¸è¯­"
    }
  },
  {
    "model": "standards.Language",
    "pk": 85,
    "fields": {
      "is_enabled": false,
       "tag": "sw",
      "iso_639_1": "sw",
      "iso_639_2": "swa",
      "iso_639_3": "swa",
      "name": "Kiswahili",
      "name_de": "Swahili",
      "name_en": "Swahili",
      "name_es": "Suajili",
      "name_fr": "Swahili",
      "name_pt": "SuaÃ­li",
      "name_ru": "Ğ¡ÑƒĞ°Ñ…Ğ¸Ğ»Ğ¸",
      "name_zh": "æ–¯ç“¦å¸Œé‡Œè¯­"
    }
  },
  {
    "model": "standards.Language",
    "pk": 86,
    "fields": {
      "is_enabled": false,
       "tag": "syc",
      "iso_639_1": "",
      "iso_639_2": "syc",
      "iso_639_3": "syc",
      "name": "Ü£Ü˜ÜªÜÜÜ / SuryÄyÄ",
      "name_de": "Syrisch",
      "name_en": "Syriac",
      "name_es": "SirÃ­aco",
      "name_fr": "Syriaque",
      "name_pt": "SirÃ­aco",
      "name_ru": "Ğ¡Ğ¸Ñ€Ğ¸Ğ¹ÑĞºĞ¸Ğ¹",
      "name_zh": "æ•˜åˆ©äºèª"
    }
  },
  {
    "model": "standards.Language",
    "pk": 87,
    "fields": {
      "is_enabled": false,
       "tag": "ta",
      "iso_639_1": "ta",
      "iso_639_2": "tam",
      "iso_639_3": "tam",
      "name": "à®¤à®®à®¿à®´à¯ / Tamiá¸»",
      "name_de": "Tamilisch",
      "name_en": "Tamil",
      "name_es": "Tamil",
      "name_fr": "Tamoul",
      "name_pt": "TÃ¢mil",
      "name_ru": "Ğ¢Ğ°Ğ¼Ğ¸Ğ»ÑŒÑĞºĞ¸Ğ¹",
      "name_zh": "æ³°ç±³å°”è¯­"
    }
  },
  {
    "model": "standards.Language",
    "pk": 88,
    "fields": {
      "is_enabled": false,
       "tag": "te",
      "iso_639_1": "te",
      "iso_639_2": "tel",
      "iso_639_3": "tel",
      "name": "à°¤à±†à°²à±à°—à± / Telugu",
      "name_de": "Telugisch",
      "name_en": "Telugu",
      "name_es": "TÃ©lugu",
      "name_fr": "TÃ©lougou",
      "name_pt": "Telugu",
      "name_ru": "Ğ¢ĞµĞ»ÑƒĞ³Ñƒ",
      "name_zh": "æ³°å¢å›ºè¯­"
    }
  },
  {
    "model": "standards.Language",
    "pk": 89,
    "fields": {
      "is_enabled": false,
       "tag": "th",
      "iso_639_1": "th",
      "iso_639_2": "tha",
      "iso_639_3": "tha",
      "name": "à¹„à¸—à¸¢ / Thai",
      "name_de": "ThailÃ¤ndisch",
      "name_en": "Thai",
      "name_es": "TailandÃ©s",
      "name_fr": "ThaÃ¯",
      "name_pt": "TailandÃªs",
      "name_ru": "Ğ¢Ğ°Ğ¹ÑĞºĞ¸Ğ¹",
      "name_zh": "æ³°è¯­"
    }
  },
  {
    "model": "standards.Language",
    "pk": 90,
    "fields": {
      "is_enabled": false,
       "tag": "tl",
      "iso_639_1": "tl",
      "iso_639_2": "tgl",
      "iso_639_3": "tgl",
      "name": "Tagalog",
      "name_de": "Tagalog",
      "name_en": "Tagalog",
      "name_es": "Tagalo",
      "name_fr": "Tagal",
      "name_pt": "Tagalo",
      "name_ru": "Ğ¢Ğ°Ğ³Ğ°Ğ»ÑŒÑĞºĞ¸Ğ¹",
      "name_zh": "ä»–åŠ ç¥¿èª"
    }
  },
  {
    "model": "standards.Language",
    "pk": 91,
    "fields": {
      "is_enabled": false,
       "tag": "tr",
      "iso_639_1": "tr",
      "iso_639_2": "tur",
      "iso_639_3": "tur",
      "name": "TÃ¼rkÃ§e",
      "name_de": "TÃ¼rkisch",
      "name_en": "Turkish",
      "name_es": "Turco",
      "name_fr": "Turc",
      "name_pt": "Turco",
      "name_ru": "Ğ¢ÑƒÑ€ĞµÑ†ĞºĞ¸Ğ¹",
      "name_zh": "åœŸè€³å…¶è¯­"
    }
  },
  {
    "model": "standards.Language",
    "pk": 92,
    "fields": {
      "is_enabled": false,
       "tag": "uk",
      "iso_639_1": "uk",
      "iso_639_2": "ukr",
      "iso_639_3": "ukr",
      "name": "Ğ£ĞºÑ€Ğ°Ñ—Ğ½ÑÑŒĞºĞ° / Ukrayinsâ€™ka",
      "name_de": "Ukrainisch",
      "name_en": "Ukrainian",
      "name_es": "Ucraniano",
      "name_fr": "Ukrainien",
      "name_pt": "Ucraniano",
      "name_ru": "Ğ£ĞºÑ€Ğ°Ğ¸Ğ½ÑĞºĞ¸Ğ¹",
      "name_zh": "ä¹Œå…‹å…°è¯­"
    }
  },
  {
    "model": "standards.Language",
    "pk": 93,
    "fields": {
      "is_enabled": false,
       "tag": "ur",
      "iso_639_1": "ur",
      "iso_639_2": "urd",
      "iso_639_3": "urd",
      "name": "Ø§Ø±Ø¯Ùˆ / Urdu",
      "name_de": "Urdu",
      "name_en": "Urdu",
      "name_es": "Urdu",
      "name_fr": "Ourdou",
      "name_pt": "Urdu",
      "name_ru": "Ğ£Ñ€Ğ´Ñƒ",
      "name_zh": "ä¹Œå°”éƒ½è¯­"
    }
  },
  {
    "model": "standards.Language",
    "pk": 94,
    "fields": {
      "is_enabled": false,
       "tag": "uz",
      "iso_639_1": "uz",
      "iso_639_2": "uzb",
      "iso_639_3": "uzb",
      "name": "OÊ»zbekcha",
      "name_de": "Usbekisch",
      "name_en": "Uzbek",
      "name_es": "Uzbeko",
      "name_fr": "Ouzbek",
      "name_pt": "Uzbeque",
      "name_ru": "Ğ£Ğ·Ğ±ĞµĞºÑĞºĞ¸Ğ¹",
      "name_zh": "ä¹Œå…¹åˆ«å…‹è¯­"
    }
  },
  {
    "model": "standards.Language",
    "pk": 95,
    "fields": {
      "is_enabled": false,
       "tag": "vi",
      "iso_639_1": "vi",
      "iso_639_2": "vie",
      "iso_639_3": "vie",
      "name": "Tiáº¿ng Viá»‡t",
      "name_de": "Vietnamesisch",
      "name_en": "Vietnamese",
      "name_es": "Vietnamita",
      "name_fr": "Vietnamien",
      "name_pt": "Vietnamita",
      "name_ru": "Ğ’ÑŒĞµÑ‚Ğ½Ğ°Ğ¼ÑĞºĞ¸Ğ¹",
      "name_zh": "è¶Šå—è¯­"
    }
  },
  {
    "model": "standards.Language",
    "pk": 96,
    "fields": {
      "is_enabled": false,
       "tag": "vo",
      "iso_639_1": "vo",
      "iso_639_2": "vol",
      "iso_639_3": "vol",
      "name": "VolapÃ¼k",
      "name_de": "VolapÃ¼k",
      "name_en": "VolapÃ¼k",
      "name_es": "VolapÃ¼k",
      "name_fr": "VolapÃ¼k",
      "name_pt": "Volapuque",
      "name_ru": "Ğ’Ğ¾Ğ»Ğ°Ğ¿ÑĞº",
      "name_zh": "æ²ƒæ‹‰æ™®å…‹è¯­"
    }
  },
  {
    "model": "standards.Language",
    "pk": 97,
    "fields": {
      "is_enabled": false,
       "tag": "war",
      "iso_639_1": "",
      "iso_639_2": "war",
      "iso_639_3": "war",
      "name": "Winaray",
      "name_de": "WÃ¡ray-WÃ¡ray",
      "name_en": "Waray-Waray",
      "name_es": "SamareÃ±o",
      "name_fr": "Waray-waray",
      "name_pt": "Waray-Waray",
      "name_ru": "Ğ’Ğ°Ñ€Ğ°Ğ¹ÑĞºĞ¸Ğ¹",
      "name_zh": "ç“¦ç‘ç“¦ç‘èª"
    }
  },
  {
    "model": "standards.Language",
    "pk": 98,
    "fields": {
      "is_enabled": false,
       "tag": "yo",
      "iso_639_1": "yo",
      "iso_639_2": "yor",
      "iso_639_3": "yor",
      "name": "YorÃ¹bÃ¡",
      "name_de": "Yoruba",
      "name_en": "Yoruba",
      "name_es": "Yoruba",
      "name_fr": "Yoruba",
      "name_pt": "IorubÃ¡",
      "name_ru": "Ğ™Ğ¾Ñ€ÑƒĞ±Ğ°",
      "name_zh": "çº¦é²å·´è¯­"
    }
  },
  {
    "model": "standards.Language",
    "pk": 99,
    "fields": {
      "is_enabled": false,
       "tag": "zh",
      "iso_639_1": "zh",
      "iso_639_2": "chi",
      "iso_639_3": "zho",
      "name": "ä¸­æ–‡ / ZhÅngwÃ©n",
      "name_de": "Chinesisch",
      "name_en": "Chinese",
      "name_es": "Chino",
      "name_fr": "Chinois",
      "name_pt": "ChinÃªs",
      "name_ru": "ĞšĞ¸Ñ‚Ğ°Ğ¹ÑĞºĞ¸Ğ¹",
      "name_zh": "ä¸­æ–‡"
    }
  },
  {
    "model": "standards.Language",
    "pk": 100,
    "fields": {
      "is_enabled": false,
       "tag": "zu",
      "iso_639_1": "zu",
      "iso_639_2": "zul",
      "iso_639_3": "zul",
      "name": "isiZulu",
      "name_de": "Zulu",
      "name_en": "Zulu",
      "name_es": "ZulÃº",
      "name_fr": "Zoulou",
      "name_pt": "Zulu",
      "name_ru": "Ğ—ÑƒĞ»Ñƒ",
      "name_zh": "ç¥–é²è¯­"
    }
  }
]
